ONEWEB-0463             
1 51650U 22012AE  26116.42206617  .00000049  00000+0  93394-4 0  9992
2 51650  87.9183  16.1660 0001639  78.9106 281.2210 13.17649558206851
ONEWEB-0464             
1 51651U 22012AF  26116.49162062  .00000576  00000+0  16128-2 0  9998
2 51651  87.8846  46.5675 0002183  78.6629 281.4743 13.10371202202559
ONEWEB-0468             
1 51652U 22012AG  26116.49830786  .00010162  00000+0  29061-1 0  9995
2 51652  87.8839  46.5605 0002274  74.9013 285.2366 13.10331355202538
ONEWEB-0473             
1 51653U 22012AH  26116.33060455  .00000683  00000+0  19208-2 0  9997
2 51653  87.8849  46.5952 0002031  80.8543 279.2814 13.10373041202517
ONEWEB-0474             
1 51654U 22012AJ  26116.32230829  .00000507  00000+0  14151-2 0  9998
2 51654  87.8861  46.5762 0002226  79.6935 280.4443 13.10374731202506
ONEWEB-0475             
1 51655U 22012AK  26116.43386975  .00000094  00000+0  20971-3 0  9994
2 51655  87.9185  16.1557 0002467  84.7463 275.3950 13.17650873206873
ONEWEB-0490             
1 54113U 22138A   26116.50334837  .00000035  00000+0  54399-4 0  9990
2 54113  87.9158 315.2713 0001915  83.2414 276.8937 13.19723921170013
ONEWEB-0492             
1 54114U 22138B   26116.52861963 -.00000027  00000+0 -98749-4 0  9998
2 54114  87.9151 315.2719 0001747  80.7605 279.3725 13.19723929170022
ONEWEB-0495             
1 54115U 22138C   26116.50650868  .00000056  00000+0  10807-3 0  9995
2 54115  87.9155 315.2784 0002281  75.0268 285.1117 13.19723930170005
ONEWEB-0497             
1 54116U 22138D   26116.51914178  .00000028  00000+0  38368-4 0  9996
2 54116  87.9154 315.2662 0001817  85.1940 274.9400 13.19723720169997
ONEWEB-0499             
1 54117U 22138E   26116.50254808 -.00000761  00000+0 -19341-2 0  9997
2 54117  87.9151 315.2809 0002018  85.7134 274.4229 13.19728059170001
ONEWEB-0500             
1 54118U 22138F   26116.50493042  .00000079  00000+0  16430-3 0  9990
2 54118  87.9158 315.2701 0001719  87.3616 272.7714 13.19723730170012
ONEWEB-0501             
1 54119U 22138G   26116.53493655  .00000016  00000+0  84498-5 0  9996
2 54119  87.9157 315.2642 0002043  81.8683 278.2681 13.19723474169994
ONEWEB-0502             
1 54120U 22138H   26116.52071766  .00000006  00000+0 -18372-4 0  9999
2 54120  87.9162 315.2554 0002057  86.5279 273.6089 13.19724235170014
ONEWEB-0503             
1 54121U 22138J   26116.50966564  .00000090  00000+0  19160-3 0  9994
2 54121  87.9165 315.2622 0001920  95.2231 264.9121 13.19724107170004
ONEWEB-0504             
1 54122U 22138K   26116.49703334  .00000063  00000+0  12446-3 0  9997
2 54122  87.9161 315.2707 0002048  86.8368 273.2999 13.19723950170016
