[{"OBJECT_NAME":"ONEWEB-0463","OBJECT_ID":"2022-012AE","EPOCH":"2026-04-26T10:07:46.517088","MEAN_MOTION":13.17649558,"ECCENTRICITY":0.0001639,"INCLINATION":87.9183,"RA_OF_ASC_NODE":16.166,"ARG_OF_PERICENTER":78.9106,"MEAN_ANOMALY":281.221,"EPHEMERIS_TYPE":0,"CLASSIFICATION_TYPE":"U","NORAD_CAT_ID":51650,"ELEMENT_SET_NO":999,"REV_AT_EPOCH":20685,"BSTAR":9.339400000000001e-05,"MEAN_MOTION_DOT":4.9e-07,"MEAN_MOTION_DDOT":0.0},{"OBJECT_NAME":"ONEWEB-0464","OBJECT_ID":"2022-012AF","EPOCH":"2026-04-26T11:47:56.021568","MEAN_MOTION":13.10371202,"ECCENTRICITY":0.0002183,"INCLINATION":87.8846,"RA_OF_ASC_NODE":46.5675,"ARG_OF_PERICENTER":78.6629,"MEAN_ANOMALY":281.4743,"EPHEMERIS_TYPE":0,"CLASSIFICATION_TYPE":"U","NORAD_CAT_ID":51651,"ELEMENT_SET_NO":999,"REV_AT_EPOCH":20255,"BSTAR":0.0016128000000000002,"MEAN_MOTION_DOT":5.76e-06,"MEAN_MOTION_DDOT":0.0},{"OBJECT_NAME":"ONEWEB-0468","OBJECT_ID":"2022-012AG","EPOCH":"2026-04-26T11:57:33.799104","MEAN_MOTION":13.10331355,"ECCENTRICITY":0.0002274,"INCLINATION":87.8839,"RA_OF_ASC_NODE":46.5605,"ARG_OF_PERICENTER":74.9013,"MEAN_ANOMALY":285.2366,"EPHEMERIS_TYPE":0,"CLASSIFICATION_TYPE":"U","NORAD_CAT_ID":51652,"ELEMENT_SET_NO":999,"REV_AT_EPOCH":20253,"BSTAR":0.029061,"MEAN_MOTION_DOT":0.00010162,"MEAN_MOTION_DDOT":0.0},{"OBJECT_NAME":"ONEWEB-0473","OBJECT_ID":"2022-012AH","EPOCH":"2026-04-26T07:56:04.233120","MEAN_MOTION":13.10373041,"ECCENTRICITY":0.0002031,"INCLINATION":87.8849,"RA_OF_ASC_NODE":46.5952,"ARG_OF_PERICENTER":80.8543,"MEAN_ANOMALY":279.2814,"EPHEMERIS_TYPE":0,"CLASSIFICATION_TYPE":"U","NORAD_CAT_ID":51653,"ELEMENT_SET_NO":999,"REV_AT_EPOCH":20251,"BSTAR":0.0019208,"MEAN_MOTION_DOT":6.83e-06,"MEAN_MOTION_DDOT":0.0},{"OBJECT_NAME":"ONEWEB-0474","OBJECT_ID":"2022-012AJ","EPOCH":"2026-04-26T07:44:07.436256","MEAN_MOTION":13.10374731,"ECCENTRICITY":0.0002226,"INCLINATION":87.8861,"RA_OF_ASC_NODE":46.5762,"ARG_OF_PERICENTER":79.6935,"MEAN_ANOMALY":280.4443,"EPHEMERIS_TYPE":0,"CLASSIFICATION_TYPE":"U","NORAD_CAT_ID":51654,"ELEMENT_SET_NO":999,"REV_AT_EPOCH":20250,"BSTAR":0.0014151,"MEAN_MOTION_DOT":5.07e-06,"MEAN_MOTION_DDOT":0.0},{"OBJECT_NAME":"ONEWEB-0475","OBJECT_ID":"2022-012AK","EPOCH":"2026-04-26T10:24:46.346400","MEAN_MOTION":13.17650873,"ECCENTRICITY":0.0002467,"INCLINATION":87.9185,"RA_OF_ASC_NODE":16.1557,"ARG_OF_PERICENTER":84.7463,"MEAN_ANOMALY":275.395,"EPHEMERIS_TYPE":0,"CLASSIFICATION_TYPE":"U","NORAD_CAT_ID":51655,"ELEMENT_SET_NO":999,"REV_AT_EPOCH":20687,"BSTAR":0.00020971000000000002,"MEAN_MOTION_DOT":9.4e-07,"MEAN_MOTION_DDOT":0.0},{"OBJECT_NAME":"ONEWEB-0490","OBJECT_ID":"2022-138A","EPOCH":"2026-04-26T12:04:49.299168","MEAN_MOTION":13.19723921,"ECCENTRICITY":0.0001915,"INCLINATION":87.9158,"RA_OF_ASC_NODE":315.2713,"ARG_OF_PERICENTER":83.2414,"MEAN_ANOMALY":276.8937,"EPHEMERIS_TYPE":0,"CLASSIFICATION_TYPE":"U","NORAD_CAT_ID":54113,"ELEMENT_SET_NO":999,"REV_AT_EPOCH":17001,"BSTAR":5.4399e-05,"MEAN_MOTION_DOT":3.5e-07,"MEAN_MOTION_DDOT":0.0},{"OBJECT_NAME":"ONEWEB-0492","OBJECT_ID":"2022-138B","EPOCH":"2026-04-26T12:41:12.736032","MEAN_MOTION":13.19723929,"ECCENTRICITY":0.0001747,"INCLINATION":87.9151,"RA_OF_ASC_NODE":315.2719,"ARG_OF_PERICENTER":80.7605,"MEAN_ANOMALY":279.3725,"EPHEMERIS_TYPE":0,"CLASSIFICATION_TYPE":"U","NORAD_CAT_ID":54114,"ELEMENT_SET_NO":999,"REV_AT_EPOCH":17002,"BSTAR":-9.8749e-05,"MEAN_MOTION_DOT":-2.7e-07,"MEAN_MOTION_DDOT":0.0},{"OBJECT_NAME":"ONEWEB-0495","OBJECT_ID":"2022-138C","EPOCH":"2026-04-26T12:09:22.349952","MEAN_MOTION":13.1972393,"ECCENTRICITY":0.0002281,"INCLINATION":87.9155,"RA_OF_ASC_NODE":315.2784,"ARG_OF_PERICENTER":75.0268,"MEAN_ANOMALY":285.1117,"EPHEMERIS_TYPE":0,"CLASSIFICATION_TYPE":"U","NORAD_CAT_ID":54115,"ELEMENT_SET_NO":999,"REV_AT_EPOCH":17000,"BSTAR":0.00010807,"MEAN_MOTION_DOT":5.6e-07,"MEAN_MOTION_DDOT":0.0},{"OBJECT_NAME":"ONEWEB-0497","OBJECT_ID":"2022-138D","EPOCH":"2026-04-26T12:27:33.849792","MEAN_MOTION":13.1972372,"ECCENTRICITY":0.0001817,"INCLINATION":87.9154,"RA_OF_ASC_NODE":315.2662,"ARG_OF_PERICENTER":85.194,"MEAN_ANOMALY":274.94,"EPHEMERIS_TYPE":0,"CLASSIFICATION_TYPE":"U","NORAD_CAT_ID":54116,"ELEMENT_SET_NO":999,"REV_AT_EPOCH":16999,"BSTAR":3.8368e-05,"MEAN_MOTION_DOT":2.8e-07,"MEAN_MOTION_DDOT":0.0},{"OBJECT_NAME":"ONEWEB-0499","OBJECT_ID":"2022-138E","EPOCH":"2026-04-26T12:03:40.154112","MEAN_MOTION":13.19728059,"ECCENTRICITY":0.0002018,"INCLINATION":87.9151,"RA_OF_ASC_NODE":315.2809,"ARG_OF_PERICENTER":85.7134,"MEAN_ANOMALY":274.4229,"EPHEMERIS_TYPE":0,"CLASSIFICATION_TYPE":"U","NORAD_CAT_ID":54117,"ELEMENT_SET_NO":999,"REV_AT_EPOCH":17000,"BSTAR":-0.0019341,"MEAN_MOTION_DOT":-7.61e-06,"MEAN_MOTION_DDOT":0.0},{"OBJECT_NAME":"ONEWEB-0500","OBJECT_ID":"2022-138F","EPOCH":"2026-04-26T12:07:05.988288","MEAN_MOTION":13.1972373,"ECCENTRICITY":0.0001719,"INCLINATION":87.9158,"RA_OF_ASC_NODE":315.2701,"ARG_OF_PERICENTER":87.3616,"MEAN_ANOMALY":272.7714,"EPHEMERIS_TYPE":0,"CLASSIFICATION_TYPE":"U","NORAD_CAT_ID":54118,"ELEMENT_SET_NO":999,"REV_AT_EPOCH":17001,"BSTAR":0.0001643,"MEAN_MOTION_DOT":7.9e-07,"MEAN_MOTION_DDOT":0.0},{"OBJECT_NAME":"ONEWEB-0501","OBJECT_ID":"2022-138G","EPOCH":"2026-04-26T12:50:18.517920","MEAN_MOTION":13.19723474,"ECCENTRICITY":0.0002043,"INCLINATION":87.9157,"RA_OF_ASC_NODE":315.2642,"ARG_OF_PERICENTER":81.8683,"MEAN_ANOMALY":278.2681,"EPHEMERIS_TYPE":0,"CLASSIFICATION_TYPE":"U","NORAD_CAT_ID":54119,"ELEMENT_SET_NO":999,"REV_AT_EPOCH":16999,"BSTAR":8.4498e-06,"MEAN_MOTION_DOT":1.6e-07,"MEAN_MOTION_DDOT":0.0},{"OBJECT_NAME":"ONEWEB-0502","OBJECT_ID":"2022-138H","EPOCH":"2026-04-26T12:29:50.005824","MEAN_MOTION":13.19724235,"ECCENTRICITY":0.0002057,"INCLINATION":87.9162,"RA_OF_ASC_NODE":315.2554,"ARG_OF_PERICENTER":86.5279,"MEAN_ANOMALY":273.6089,"EPHEMERIS_TYPE":0,"CLASSIFICATION_TYPE":"U","NORAD_CAT_ID":54120,"ELEMENT_SET_NO":999,"REV_AT_EPOCH":17001,"BSTAR":-1.8372e-05,"MEAN_MOTION_DOT":6e-08,"MEAN_MOTION_DDOT":0.0},{"OBJECT_NAME":"ONEWEB-0503","OBJECT_ID":"2022-138J","EPOCH":"2026-04-26T12:13:55.111296","MEAN_MOTION":13.19724107,"ECCENTRICITY":0.000192,"INCLINATION":87.9165,"RA_OF_ASC_NODE":315.2622,"ARG_OF_PERICENTER":95.2231,"MEAN_ANOMALY":264.9121,"EPHEMERIS_TYPE":0,"CLASSIFICATION_TYPE":"U","NORAD_CAT_ID":54121,"ELEMENT_SET_NO":999,"REV_AT_EPOCH":17000,"BSTAR":0.0001916,"MEAN_MOTION_DOT":9e-07,"MEAN_MOTION_DDOT":0.0},{"OBJECT_NAME":"ONEWEB-0504","OBJECT_ID":"2022-138K","EPOCH":"2026-04-26T11:55:43.680576","MEAN_MOTION":13.1972395,"ECCENTRICITY":0.0002048,"INCLINATION":87.9161,"RA_OF_ASC_NODE":315.2707,"ARG_OF_PERICENTER":86.8368,"MEAN_ANOMALY":273.2999,"EPHEMERIS_TYPE":0,"CLASSIFICATION_TYPE":"U","NORAD_CAT_ID":54122,"ELEMENT_SET_NO":999,"REV_AT_EPOCH":17001,"BSTAR":0.00012446,"MEAN_MOTION_DOT":6.3e-07,"MEAN_MOTION_DDOT":0.0}]